[{"OBJECT_NAME":"OBJECT AS","OBJECT_ID":"2023-085AS","EPOCH":"2026-03-09T22:43:55.521696","MEAN_MOTION":15.33336233,"ECCENTRICITY":0.00083243,"INCLINATION":97.4812,"RA_OF_ASC_NODE":180.8852,"ARG_OF_PERICENTER":80.6036,"MEAN_ANOMALY":279.6147,"EPHEMERIS_TYPE":0,"CLASSIFICATION_TYPE":"U","NORAD_CAT_ID":57044,"ELEMENT_SET_NO":999,"REV_AT_EPOCH":15162,"BSTAR":0.00067677795,"MEAN_MOTION_DOT":0.00021782,"MEAN_MOTION_DDOT":0},{"OBJECT_NAME":"STARLINK-31484","OBJECT_ID":"2024-036H","EPOCH":"2026-03-09T08:17:51.671616","MEAN_MOTION":15.30188299,"ECCENTRICITY":6.44e-6,"INCLINATION":53.16,"RA_OF_ASC_NODE":79.5068,"ARG_OF_PERICENTER":214.6339,"MEAN_ANOMALY":145.4658,"EPHEMERIS_TYPE":0,"CLASSIFICATION_TYPE":"U","NORAD_CAT_ID":59005,"ELEMENT_SET_NO":999,"REV_AT_EPOCH":11527,"BSTAR":-3.5185123e-5,"MEAN_MOTION_DOT":-1.4e-5,"MEAN_MOTION_DDOT":0}]
